Delivered-To: ivangayton@gmail.com
Received: by 10.25.22.69 with SMTP id m66csp571318lfi;
        Sun, 19 Jul 2015 04:36:43 -0700 (PDT)
X-Received: by 10.68.130.98 with SMTP id od2mr47224184pbb.73.1437305298613;
        Sun, 19 Jul 2015 04:28:18 -0700 (PDT)
Return-Path: <horizons@ssd.jpl.nasa.gov>
Received: from ssd.jpl.nasa.gov (ssd.jpl.nasa.gov. [128.149.23.134])
        by mx.google.com with ESMTPS id k4si28390964pdb.126.2015.07.19.04.28.17
        for <ivangayton@gmail.com>
        (version=TLSv1 cipher=RC4-SHA bits=128/128);
        Sun, 19 Jul 2015 04:28:18 -0700 (PDT)
Received-SPF: pass (google.com: best guess record for domain of horizons@ssd.jpl.nasa.gov designates 128.149.23.134 as permitted sender) client-ip=128.149.23.134;
Authentication-Results: mx.google.com;
       spf=pass (google.com: best guess record for domain of horizons@ssd.jpl.nasa.gov designates 128.149.23.134 as permitted sender) smtp.mail=horizons@ssd.jpl.nasa.gov
Received: from ssd.jpl.nasa.gov (localhost.localdomain [127.0.0.1])
	by ssd.jpl.nasa.gov (8.13.8/8.13.8) with ESMTP id t6JBSHDs030929
	for <ivangayton@gmail.com>; Sun, 19 Jul 2015 04:28:17 -0700
Received: (from horizons@localhost)
	by ssd.jpl.nasa.gov (8.13.8/8.13.8/Submit) id t6JBSHku030927
	for ivangayton@gmail.com; Sun, 19 Jul 2015 04:28:17 -0700
Date: Sun, 19 Jul 2015 04:28:17 -0700
From: Horizons Ephemeris System <horizons@ssd.jpl.nasa.gov>
Message-Id: <201507191128.t6JBSHku030927@ssd.jpl.nasa.gov>
Subject: MAJOR BODY #C(500@0)_T(717) (1/1)

 Automated mail xmit by MAIL_REQUEST, PID=   20220 Sun Jul 19 04:28:17 2015
++++++++++++++++++++++++++++++++ (part 1 of 1)  +++++++++++++++++++++++++++++++

*******************************************************************************
 Revised: Jan 08, 2014           Sycorax / (Uranus)                         717

           http://ssd.jpl.nasa.gov/sat_props.html  (physical properties)
           http://ssd.jpl.nasa.gov/sat_elem.html   (mean elements)

 SATELLITE PHYSICAL PROPERTIES:
  Radius (km)           = ~60               Density (g cm^-3)   =
  Mass (10^20 kg )      =                   Geometric Albedo    =   0.07 
                                            V(1,0)              =  

 SATELLITE ORBITAL DATA:
  Semi-major axis, a (km) = 122 (10^5)      Orbital period      = 1290 days
  Eccentricity, e         =   0.5           Rotational period   = 
  Inclination, i  (deg)   =  97.8 (retro)
*******************************************************************************
 
 
*******************************************************************************
Ephemeris / MAIL_REQUEST Sun Jul 19 04:28:17 2015 Pasadena, USA  / Horizons    
*******************************************************************************
Target body name: Sycorax (717)                   {source: URA112}
Center body name: Solar System Barycenter (0)     {source: DE-0431LE-0431}
Center-site name: BODY CENTER
*******************************************************************************
Start time      : A.D. 2015-Jul-19 00:00:00.0000 CT 
Stop  time      : A.D. 2015-Jul-19 00:00:00.0000 CT 
Step-size       : DISCRETE TIME-LIST
*******************************************************************************
Center geodetic : 0.00000000,0.00000000,0.0000000 {E-lon(deg),Lat(deg),Alt(km)}
Center cylindric: 0.00000000,0.00000000,0.0000000 {E-lon(deg),Dxy(km),Dz(km)}
Center radii    : (undefined)                                                  
Output units    : KM-S                                                         
Output format   : 02
Reference frame : ICRF/J2000.0                                                 
Output type     : GEOMETRIC cartesian states
Coordinate systm: Ecliptic and Mean Equinox of Reference Epoch                 
*******************************************************************************
JDCT ,   , X, Y, Z, VX, VY, VZ,
*******************************************************************************
$$SOE
2457222.500000000, A.D. 2015-Jul-19 00:00:00.0000,  2.848142888034244E+09,  9.008626436243441E+08, -2.964082599428123E+07, -1.833364404616536E+00,  6.875611399881740E+00, -3.817741019866983E-03,
$$EOE
*******************************************************************************
Coordinate system description:

  Ecliptic and Mean Equinox of Reference Epoch

    Reference epoch: J2000.0
    xy-plane: plane of the Earth's orbit at the reference epoch
    x-axis  : out along ascending node of instantaneous plane of the Earth's
              orbit and the Earth's mean equator at the reference epoch
    z-axis  : perpendicular to the xy-plane in the directional (+ or -) sense
              of Earth's north pole at the reference epoch.

Symbol meaning  

    JDCT     Epoch Julian Date, Coordinate Time
      X      x-component of position vector (km)                               
      Y      y-component of position vector (km)                               
      Z      z-component of position vector (km)                               
      VX     x-component of velocity vector (km/sec)                           
      VY     y-component of velocity vector (km/sec)                           
      VZ     z-component of velocity vector (km/sec)                           

Geometric states/elements have no aberration corrections applied.

 Computations by ...
     Solar System Dynamics Group, Horizons On-Line Ephemeris System
     4800 Oak Grove Drive, Jet Propulsion Laboratory
     Pasadena, CA  91109   USA
     Information: http://ssd.jpl.nasa.gov/
     Connect    : telnet://ssd.jpl.nasa.gov:6775  (via browser)
                  telnet ssd.jpl.nasa.gov 6775    (via command-line)
     Author     : Jon.Giorgini@jpl.nasa.gov
*******************************************************************************
